[{"OBJECT_NAME":"CUBESX-HSE 3 (RS42S)","OBJECT_ID":"2023-091N","EPOCH":"2026-03-09T22:57:25.321248","MEAN_MOTION":15.286147,"ECCENTRICITY":0.00127191,"INCLINATION":97.5203,"RA_OF_ASC_NODE":133.4295,"ARG_OF_PERICENTER":86.5376,"MEAN_ANOMALY":273.7318,"EPHEMERIS_TYPE":0,"CLASSIFICATION_TYPE":"U","NORAD_CAT_ID":57178,"ELEMENT_SET_NO":999,"REV_AT_EPOCH":14925,"BSTAR":0.00059055694,"MEAN_MOTION_DOT":0.00016417,"MEAN_MOTION_DDOT":0},{"OBJECT_NAME":"STARLINK-31036","OBJECT_ID":"2023-192C","EPOCH":"2026-03-09T08:57:15.663744","MEAN_MOTION":15.30189055,"ECCENTRICITY":0.0001236,"INCLINATION":53.1619,"RA_OF_ASC_NODE":64.4708,"ARG_OF_PERICENTER":102.6931,"MEAN_ANOMALY":257.4208,"EPHEMERIS_TYPE":0,"CLASSIFICATION_TYPE":"U","NORAD_CAT_ID":58533,"ELEMENT_SET_NO":999,"REV_AT_EPOCH":12593,"BSTAR":-1.668516e-6,"MEAN_MOTION_DOT":-4.08e-6,"MEAN_MOTION_DDOT":0}]
